CCSDS_OMM_VERS = 2.0
CREATION_DATE  = 
ORIGINATOR     = 

OBJECT_NAME    = COSMOS 1892
OBJECT_ID      = 1987-088A
CENTER_NAME    = EARTH
REF_FRAME      = TEME
TIME_SYSTEM    = UTC
MEAN_ELEMENT_THEORY = SGP/SGP4

EPOCH          = 2025-11-13T09:24:04.420512
MEAN_MOTION    = 15.99959197
ECCENTRICITY   = .00062295
INCLINATION    = 82.4660
RA_OF_ASC_NODE = 76.8581
ARG_OF_PERICENTER = 281.6760
MEAN_ANOMALY   = 78.3818

EPHEMERIS_TYPE = 0
CLASSIFICATION_TYPE = U
NORAD_CAT_ID   = 18421
ELEMENT_SET_NO = 999
REV_AT_EPOCH   = 8661
BSTAR          = .10564822E-2
MEAN_MOTION_DOT = .534496E-2
MEAN_MOTION_DDOT = .12344115E-3

CCSDS_OMM_VERS = 2.0
CREATION_DATE  = 
ORIGINATOR     = 

OBJECT_NAME    = SL-14 R/B
OBJECT_ID      = 1988-001B
CENTER_NAME    = EARTH
REF_FRAME      = TEME
TIME_SYSTEM    = UTC
MEAN_ELEMENT_THEORY = SGP/SGP4

EPOCH          = 2025-11-13T11:24:37.182240
MEAN_MOTION    = 14.85377985
ECCENTRICITY   = .00164797
INCLINATION    = 82.5107
RA_OF_ASC_NODE = 304.6774
ARG_OF_PERICENTER = 262.1740
MEAN_ANOMALY   = 97.7606

EPHEMERIS_TYPE = 0
CLASSIFICATION_TYPE = U
NORAD_CAT_ID   = 18749
ELEMENT_SET_NO = 999
REV_AT_EPOCH   = 2477
BSTAR          = .13557872E-3
MEAN_MOTION_DOT = .1193E-4
MEAN_MOTION_DDOT = 0

CCSDS_OMM_VERS = 2.0
CREATION_DATE  = 
ORIGINATOR     = 

OBJECT_NAME    = COSMOS 1933
OBJECT_ID      = 1988-020A
CENTER_NAME    = EARTH
REF_FRAME      = TEME
TIME_SYSTEM    = UTC
MEAN_ELEMENT_THEORY = SGP/SGP4

EPOCH          = 2025-11-13T11:09:20.344320
MEAN_MOTION    = 15.16788227
ECCENTRICITY   = .00032797
INCLINATION    = 82.5163
RA_OF_ASC_NODE = 5.7965
ARG_OF_PERICENTER = 229.0970
MEAN_ANOMALY   = 130.9979

EPHEMERIS_TYPE = 0
CLASSIFICATION_TYPE = U
NORAD_CAT_ID   = 18958
ELEMENT_SET_NO = 999
REV_AT_EPOCH   = 3260
BSTAR          = .51789483E-3
MEAN_MOTION_DOT = .10202E-3
MEAN_MOTION_DDOT = 0

CCSDS_OMM_VERS = 2.0
CREATION_DATE  = 
ORIGINATOR     = 

OBJECT_NAME    = SL-3 R/B
OBJECT_ID      = 1988-032B
CENTER_NAME    = EARTH
REF_FRAME      = TEME
TIME_SYSTEM    = UTC
MEAN_ELEMENT_THEORY = SGP/SGP4

EPOCH          = 2025-11-13T14:29:46.080384
MEAN_MOTION    = 15.18319752
ECCENTRICITY   = .00248478
INCLINATION    = 97.5056
RA_OF_ASC_NODE = 296.5402
ARG_OF_PERICENTER = 279.5919
MEAN_ANOMALY   = 80.2508

EPHEMERIS_TYPE = 0
CLASSIFICATION_TYPE = U
NORAD_CAT_ID   = 19046
ELEMENT_SET_NO = 999
REV_AT_EPOCH   = 3448
BSTAR          = .60409866E-3
MEAN_MOTION_DOT = .12437E-3
MEAN_MOTION_DDOT = 0

CCSDS_OMM_VERS = 2.0
CREATION_DATE  = 
ORIGINATOR     = 

OBJECT_NAME    = SL-16 R/B
OBJECT_ID      = 1988-039B
CENTER_NAME    = EARTH
REF_FRAME      = TEME
TIME_SYSTEM    = UTC
MEAN_ELEMENT_THEORY = SGP/SGP4

EPOCH          = 2025-11-13T10:24:56.507904
MEAN_MOTION    = 14.19589684
ECCENTRICITY   = .0021093
INCLINATION    = 71.0143
RA_OF_ASC_NODE = 314.3640
ARG_OF_PERICENTER = 164.5555
MEAN_ANOMALY   = 195.6218

EPHEMERIS_TYPE = 0
CLASSIFICATION_TYPE = U
NORAD_CAT_ID   = 19120
ELEMENT_SET_NO = 999
REV_AT_EPOCH   = 94188
BSTAR          = .42410621E-4
MEAN_MOTION_DOT = .42E-6
MEAN_MOTION_DDOT = 0

CCSDS_OMM_VERS = 2.0
CREATION_DATE  = 
ORIGINATOR     = 

OBJECT_NAME    = COSMOS 1953
OBJECT_ID      = 1988-050A
CENTER_NAME    = EARTH
REF_FRAME      = TEME
TIME_SYSTEM    = UTC
MEAN_ELEMENT_THEORY = SGP/SGP4

EPOCH          = 2025-11-13T08:11:02.851008
MEAN_MOTION    = 15.26465686
ECCENTRICITY   = .00122541
INCLINATION    = 82.5070
RA_OF_ASC_NODE = 275.0707
ARG_OF_PERICENTER = 163.3387
MEAN_ANOMALY   = 196.8257

EPHEMERIS_TYPE = 0
CLASSIFICATION_TYPE = U
NORAD_CAT_ID   = 19210
ELEMENT_SET_NO = 999
REV_AT_EPOCH   = 2002
BSTAR          = .45852537E-3
MEAN_MOTION_DOT = .12015E-3
MEAN_MOTION_DDOT = 0

CCSDS_OMM_VERS = 2.0
CREATION_DATE  = 
ORIGINATOR     = 

OBJECT_NAME    = SL-8 R/B
OBJECT_ID      = 1988-053B
CENTER_NAME    = EARTH
REF_FRAME      = TEME
TIME_SYSTEM    = UTC
MEAN_ELEMENT_THEORY = SGP/SGP4

EPOCH          = 2025-11-13T11:41:27.027168
MEAN_MOTION    = 14.38834658
ECCENTRICITY   = .00200286
INCLINATION    = 74.0471
RA_OF_ASC_NODE = 326.6355
ARG_OF_PERICENTER = 180.0922
MEAN_ANOMALY   = 291.2639

EPHEMERIS_TYPE = 0
CLASSIFICATION_TYPE = U
NORAD_CAT_ID   = 19257
ELEMENT_SET_NO = 999
REV_AT_EPOCH   = 95988
BSTAR          = .23353209E-3
MEAN_MOTION_DOT = .694E-5
MEAN_MOTION_DDOT = 0

CCSDS_OMM_VERS = 2.0
CREATION_DATE  = 
ORIGINATOR     = 

OBJECT_NAME    = COSMOS 1975
OBJECT_ID      = 1988-093A
CENTER_NAME    = EARTH
REF_FRAME      = TEME
TIME_SYSTEM    = UTC
MEAN_ELEMENT_THEORY = SGP/SGP4

EPOCH          = 2025-11-13T06:37:25.783968
MEAN_MOTION    = 15.25815276
ECCENTRICITY   = .00099654
INCLINATION    = 82.5213
RA_OF_ASC_NODE = 234.3059
ARG_OF_PERICENTER = 213.1761
MEAN_ANOMALY   = 146.8853

EPHEMERIS_TYPE = 0
CLASSIFICATION_TYPE = U
NORAD_CAT_ID   = 19573
ELEMENT_SET_NO = 999
REV_AT_EPOCH   = 164
BSTAR          = .80342723E-3
MEAN_MOTION_DOT = .20627E-3
MEAN_MOTION_DDOT = 0

CCSDS_OMM_VERS = 2.0
CREATION_DATE  = 
ORIGINATOR     = 

OBJECT_NAME    = SL-14 R/B
OBJECT_ID      = 1988-093B
CENTER_NAME    = EARTH
REF_FRAME      = TEME
TIME_SYSTEM    = UTC
MEAN_ELEMENT_THEORY = SGP/SGP4

EPOCH          = 2025-11-13T07:02:18.708576
MEAN_MOTION    = 14.85505269
ECCENTRICITY   = .00221768
INCLINATION    = 82.5296
RA_OF_ASC_NODE = 151.3016
ARG_OF_PERICENTER = 65.0651
MEAN_ANOMALY   = 107.7865

EPHEMERIS_TYPE = 0
CLASSIFICATION_TYPE = U
NORAD_CAT_ID   = 19574
ELEMENT_SET_NO = 999
REV_AT_EPOCH   = 98375
BSTAR          = .11665824E-3
MEAN_MOTION_DOT = .1035E-4
MEAN_MOTION_DDOT = 0

CCSDS_OMM_VERS = 2.0
CREATION_DATE  = 
ORIGINATOR     = 

OBJECT_NAME    = SL-16 R/B
OBJECT_ID      = 1988-102B
CENTER_NAME    = EARTH
REF_FRAME      = TEME
TIME_SYSTEM    = UTC
MEAN_ELEMENT_THEORY = SGP/SGP4

EPOCH          = 2025-11-13T15:20:09.676896
MEAN_MOTION    = 14.16130270
ECCENTRICITY   = .00147252
INCLINATION    = 71.0011
RA_OF_ASC_NODE = 35.6728
ARG_OF_PERICENTER = 196.9720
MEAN_ANOMALY   = 163.0912

EPHEMERIS_TYPE = 0
CLASSIFICATION_TYPE = U
NORAD_CAT_ID   = 19650
ELEMENT_SET_NO = 999
REV_AT_EPOCH   = 91046
BSTAR          = .3239268E-5
MEAN_MOTION_DOT = -.41E-6
MEAN_MOTION_DDOT = 0

CCSDS_OMM_VERS = 2.0
CREATION_DATE  = 
ORIGINATOR     = 

OBJECT_NAME    = INTERCOSMOS 24
OBJECT_ID      = 1989-080A
CENTER_NAME    = EARTH
REF_FRAME      = TEME
TIME_SYSTEM    = UTC
MEAN_ELEMENT_THEORY = SGP/SGP4

EPOCH          = 2025-11-13T14:02:29.345568
MEAN_MOTION    = 12.59374902
ECCENTRICITY   = .11881068
INCLINATION    = 82.6069
RA_OF_ASC_NODE = 179.9104
ARG_OF_PERICENTER = 202.1511
MEAN_ANOMALY   = 152.3894

EPHEMERIS_TYPE = 0
CLASSIFICATION_TYPE = U
NORAD_CAT_ID   = 20261
ELEMENT_SET_NO = 999
REV_AT_EPOCH   = 65218
BSTAR          = .39557078E-3
MEAN_MOTION_DOT = .1342E-4
MEAN_MOTION_DDOT = 0

CCSDS_OMM_VERS = 2.0
CREATION_DATE  = 
ORIGINATOR     = 

OBJECT_NAME    = SL-14 R/B
OBJECT_ID      = 1989-080C
CENTER_NAME    = EARTH
REF_FRAME      = TEME
TIME_SYSTEM    = UTC
MEAN_ELEMENT_THEORY = SGP/SGP4

EPOCH          = 2025-11-13T07:13:00.067008
MEAN_MOTION    = 12.50381511
ECCENTRICITY   = .12312529
INCLINATION    = 82.5933
RA_OF_ASC_NODE = 247.9120
ARG_OF_PERICENTER = 90.8425
MEAN_ANOMALY   = 283.3580

EPHEMERIS_TYPE = 0
CLASSIFICATION_TYPE = U
NORAD_CAT_ID   = 20262
ELEMENT_SET_NO = 999
REV_AT_EPOCH   = 64560
BSTAR          = .18076673E-3
MEAN_MOTION_DOT = .631E-5
MEAN_MOTION_DDOT = 0

