COSMOS 1892             
1 18421U 87088A   25317.39171783  .00534496  12344-3  10565-2 0  9991
2 18421  82.4660  76.8581 0006229 281.6760  78.3818 15.99959197 86618
SL-14 R/B               
1 18749U 88001B   25317.47543035  .00001193  00000+0  13558-3 0  9993
2 18749  82.5107 304.6774 0016479 262.1740  97.7606 14.85377985 24776
COSMOS 1933             
1 18958U 88020A   25317.46481880  .00010202  00000+0  51789-3 0  9993
2 18958  82.5163   5.7965 0003279 229.0970 130.9979 15.16788227 32606
SL-3 R/B                
1 19046U 88032B   25317.60400556  .00012437  00000+0  60410-3 0  9995
2 19046  97.5056 296.5402 0024847 279.5919  80.2508 15.18319752 34483
SL-16 R/B               
1 19120U 88039B   25317.43398736  .00000042  00000+0  42411-4 0  9993
2 19120  71.0143 314.3640 0021093 164.5555 195.6218 14.19589684941885
COSMOS 1953             
1 19210U 88050A   25317.34100522  .00012015  00000+0  45853-3 0  9995
2 19210  82.5070 275.0707 0012254 163.3387 196.8257 15.26465686 20021
SL-8 R/B                
1 19257U 88053B   25317.48711837  .00000694  00000+0  23353-3 0  9992
2 19257  74.0471 326.6355 0020028 180.0922 291.2639 14.38834658959884
COSMOS 1975             
1 19573U 88093A   25317.27599287  .00020627  00000+0  80343-3 0  9997
2 19573  82.5213 234.3059 0009965 213.1761 146.8853 15.25815276  1642
SL-14 R/B               
1 19574U 88093B   25317.29327209  .00001035  00000+0  11666-3 0  9997
2 19574  82.5296 151.3016 0022176  65.0651 107.7865 14.85505269983759
SL-16 R/B               
1 19650U 88102B   25317.63900089 -.00000041  00000+0  32393-5 0  9993
2 19650  71.0011  35.6728 0014725 196.9720 163.0912 14.16130270910464
INTERCOSMOS 24          
1 20261U 89080A   25317.58506187  .00001342  00000+0  39557-3 0  9995
2 20261  82.6069 179.9104 1188106 202.1511 152.3894 12.59374902652188
SL-14 R/B               
1 20262U 89080C   25317.30069522  .00000631  00000+0  18077-3 0  9997
2 20262  82.5933 247.9120 1231252  90.8425 283.3580 12.50381511645600
